STARLINK-36808          
1 67881U 26035C   26064.91668981 -.01089203  36748-3 -26945-2 0  9996
2 67881  97.2758 356.9642 0001268  93.4781  85.6192 15.95971329  3155
STARLINK-36817          
1 67882U 26035D   26064.91668981 -.01111921  38273-3 -27175-2 0  9991
2 67882  97.2747 356.9694 0001252  97.2742  94.7761 15.96200000  3158
STARLINK-36856          
1 67883U 26035E   26064.91668981 -.01110662  38163-3 -27252-2 0  9997
2 67883  97.2753 356.9678 0001188 101.0875  86.9386 15.96126798  3154
STARLINK-36842          
1 67884U 26035F   26064.91668981 -.01102348  37691-3 -26843-2 0  9990
2 67884  97.2746 356.9709 0001248  89.3245 106.5118 15.96266252  3150
STARLINK-36826          
1 67885U 26035G   26064.91668981 -.01114383  38493-3 -27010-2 0  9991
2 67885  97.2745 356.9724 0001275 101.7009  97.1948 15.96354022  3153
STARLINK-36390          
1 67886U 26035H   26064.91668981 -.01114388  38525-3 -26897-2 0  9995
2 67886  97.2741 356.9740 0001179  97.4107 106.0211 15.96431779  3193
STARLINK-36368          
1 67887U 26035J   26064.91668981 -.01125148  39250-3 -27042-2 0  9991
2 67887  97.2739 356.9758 0001202  99.3586 108.4041 15.96511827  3155
STARLINK-36801          
1 67888U 26035K   26064.91668981 -.01171397  42333-3 -28013-2 0  9994
2 67888  97.2736 356.9776 0001246 101.9909 109.9464 15.96610431  3156
STARLINK-36372          
1 67889U 26035L   26064.91668981 -.01242306  47286-3 -29439-2 0  9999
2 67889  97.2729 356.9807 0001258 110.5527 109.4383 15.96789121  3157
STARLINK-36363          
1 67890U 26035M   26064.91668981 -.01239480  47048-3 -29496-2 0  9999
2 67890  97.2735 356.9797 0001327 105.8131 110.8064 15.96710921  3153
STARLINK-36816          
1 67891U 26035N   26064.91668981 -.01324892  53757-3 -29982-2 0  9996
2 67891  97.2718 357.0041 0001035  96.1638 183.8731 15.97645422  3042
STARLINK-36813          
1 67892U 26035P   26064.91668981 -.01299687  51638-3 -30116-2 0  9997
2 67892  97.2712 356.9927 0001113  95.5983 157.5917 15.97209388  3154
STARLINK-36803          
1 67893U 26035Q   26064.91668981 -.01276185  49730-3 -30155-2 0  9999
2 67893  97.2728 356.9827 0001294 100.8683 124.1262 15.96846462  3150
STARLINK-36846          
1 67894U 26035R   26064.91668981 -.01291785  50920-3 -30343-2 0  9995
2 67894  97.2726 356.9869 0001438 113.9008 121.2642 15.96957544  3155
STARLINK-36866          
1 67895U 26035S   26064.91668981 -.01298224  51426-3 -30392-2 0  9997
2 67895  97.2725 356.9886 0001207  94.7616 144.8796 15.97020799  3154
STARLINK-36877          
1 67896U 26035T   26064.91668981 -.01273511  49563-3 -30013-2 0  9999
2 67896  97.2726 356.9847 0001247  92.2049 138.0733 15.96894571  3152
