[{"OBJECT_NAME":"STARLINK-36808","OBJECT_ID":"2026-035C","EPOCH":"2026-03-05T22:00:01.999584","MEAN_MOTION":15.95971329,"ECCENTRICITY":0.00012682,"INCLINATION":97.2758,"RA_OF_ASC_NODE":356.9642,"ARG_OF_PERICENTER":93.4781,"MEAN_ANOMALY":85.6192,"EPHEMERIS_TYPE":0,"CLASSIFICATION_TYPE":"U","NORAD_CAT_ID":67881,"ELEMENT_SET_NO":999,"REV_AT_EPOCH":315,"BSTAR":-0.0026945002,"MEAN_MOTION_DOT":-0.01089203,"MEAN_MOTION_DDOT":0.00036747705},{"OBJECT_NAME":"STARLINK-36817","OBJECT_ID":"2026-035D","EPOCH":"2026-03-05T22:00:01.999584","MEAN_MOTION":15.962,"ECCENTRICITY":0.00012528,"INCLINATION":97.2747,"RA_OF_ASC_NODE":356.9694,"ARG_OF_PERICENTER":97.2742,"MEAN_ANOMALY":94.7761,"EPHEMERIS_TYPE":0,"CLASSIFICATION_TYPE":"U","NORAD_CAT_ID":67882,"ELEMENT_SET_NO":999,"REV_AT_EPOCH":315,"BSTAR":-0.0027175093,"MEAN_MOTION_DOT":-0.01111921,"MEAN_MOTION_DDOT":0.00038272831},{"OBJECT_NAME":"STARLINK-36856","OBJECT_ID":"2026-035E","EPOCH":"2026-03-05T22:00:01.999584","MEAN_MOTION":15.96126798,"ECCENTRICITY":0.0001188,"INCLINATION":97.2753,"RA_OF_ASC_NODE":356.9678,"ARG_OF_PERICENTER":101.0875,"MEAN_ANOMALY":86.9386,"EPHEMERIS_TYPE":0,"CLASSIFICATION_TYPE":"U","NORAD_CAT_ID":67883,"ELEMENT_SET_NO":999,"REV_AT_EPOCH":315,"BSTAR":-0.0027251624,"MEAN_MOTION_DOT":-0.01110662,"MEAN_MOTION_DDOT":0.00038162873},{"OBJECT_NAME":"STARLINK-36842","OBJECT_ID":"2026-035F","EPOCH":"2026-03-05T22:00:01.999584","MEAN_MOTION":15.96266252,"ECCENTRICITY":0.00012487,"INCLINATION":97.2746,"RA_OF_ASC_NODE":356.9709,"ARG_OF_PERICENTER":89.3245,"MEAN_ANOMALY":106.5118,"EPHEMERIS_TYPE":0,"CLASSIFICATION_TYPE":"U","NORAD_CAT_ID":67884,"ELEMENT_SET_NO":999,"REV_AT_EPOCH":315,"BSTAR":-0.0026842989,"MEAN_MOTION_DOT":-0.01102348,"MEAN_MOTION_DDOT":0.00037691438},{"OBJECT_NAME":"STARLINK-36826","OBJECT_ID":"2026-035G","EPOCH":"2026-03-05T22:00:01.999584","MEAN_MOTION":15.96354022,"ECCENTRICITY":0.00012754,"INCLINATION":97.2745,"RA_OF_ASC_NODE":356.9724,"ARG_OF_PERICENTER":101.7009,"MEAN_ANOMALY":97.1948,"EPHEMERIS_TYPE":0,"CLASSIFICATION_TYPE":"U","NORAD_CAT_ID":67885,"ELEMENT_SET_NO":999,"REV_AT_EPOCH":315,"BSTAR":-0.0027010151,"MEAN_MOTION_DOT":-0.01114383,"MEAN_MOTION_DDOT":0.00038492775},{"OBJECT_NAME":"STARLINK-36390","OBJECT_ID":"2026-035H","EPOCH":"2026-03-05T22:00:01.999584","MEAN_MOTION":15.96431779,"ECCENTRICITY":0.00011798,"INCLINATION":97.2741,"RA_OF_ASC_NODE":356.974,"ARG_OF_PERICENTER":97.4107,"MEAN_ANOMALY":106.0211,"EPHEMERIS_TYPE":0,"CLASSIFICATION_TYPE":"U","NORAD_CAT_ID":67886,"ELEMENT_SET_NO":999,"REV_AT_EPOCH":319,"BSTAR":-0.0026897297,"MEAN_MOTION_DOT":-0.01114388,"MEAN_MOTION_DDOT":0.00038525104},{"OBJECT_NAME":"STARLINK-36368","OBJECT_ID":"2026-035J","EPOCH":"2026-03-05T22:00:01.999584","MEAN_MOTION":15.96511827,"ECCENTRICITY":0.00012027,"INCLINATION":97.2739,"RA_OF_ASC_NODE":356.9758,"ARG_OF_PERICENTER":99.3586,"MEAN_ANOMALY":108.4041,"EPHEMERIS_TYPE":0,"CLASSIFICATION_TYPE":"U","NORAD_CAT_ID":67887,"ELEMENT_SET_NO":999,"REV_AT_EPOCH":315,"BSTAR":-0.0027041806,"MEAN_MOTION_DOT":-0.01125148,"MEAN_MOTION_DDOT":0.00039250196},{"OBJECT_NAME":"STARLINK-36801","OBJECT_ID":"2026-035K","EPOCH":"2026-03-05T22:00:01.999584","MEAN_MOTION":15.96610431,"ECCENTRICITY":0.00012463,"INCLINATION":97.2736,"RA_OF_ASC_NODE":356.9776,"ARG_OF_PERICENTER":101.9909,"MEAN_ANOMALY":109.9464,"EPHEMERIS_TYPE":0,"CLASSIFICATION_TYPE":"U","NORAD_CAT_ID":67888,"ELEMENT_SET_NO":999,"REV_AT_EPOCH":315,"BSTAR":-0.0028013331,"MEAN_MOTION_DOT":-0.01171397,"MEAN_MOTION_DDOT":0.00042333366},{"OBJECT_NAME":"STARLINK-36372","OBJECT_ID":"2026-035L","EPOCH":"2026-03-05T22:00:01.999584","MEAN_MOTION":15.96789121,"ECCENTRICITY":0.00012581,"INCLINATION":97.2729,"RA_OF_ASC_NODE":356.9807,"ARG_OF_PERICENTER":110.5527,"MEAN_ANOMALY":109.4383,"EPHEMERIS_TYPE":0,"CLASSIFICATION_TYPE":"U","NORAD_CAT_ID":67889,"ELEMENT_SET_NO":999,"REV_AT_EPOCH":315,"BSTAR":-0.0029438797,"MEAN_MOTION_DOT":-0.01242306,"MEAN_MOTION_DDOT":0.00047286342},{"OBJECT_NAME":"STARLINK-36363","OBJECT_ID":"2026-035M","EPOCH":"2026-03-05T22:00:01.999584","MEAN_MOTION":15.96710921,"ECCENTRICITY":0.00013275,"INCLINATION":97.2735,"RA_OF_ASC_NODE":356.9797,"ARG_OF_PERICENTER":105.8131,"MEAN_ANOMALY":110.8064,"EPHEMERIS_TYPE":0,"CLASSIFICATION_TYPE":"U","NORAD_CAT_ID":67890,"ELEMENT_SET_NO":999,"REV_AT_EPOCH":315,"BSTAR":-0.0029495831,"MEAN_MOTION_DOT":-0.0123948,"MEAN_MOTION_DDOT":0.00047048412},{"OBJECT_NAME":"STARLINK-36816","OBJECT_ID":"2026-035N","EPOCH":"2026-03-05T22:00:01.999584","MEAN_MOTION":15.97645422,"ECCENTRICITY":0.0001035,"INCLINATION":97.2718,"RA_OF_ASC_NODE":357.0041,"ARG_OF_PERICENTER":96.1638,"MEAN_ANOMALY":183.8731,"EPHEMERIS_TYPE":0,"CLASSIFICATION_TYPE":"U","NORAD_CAT_ID":67891,"ELEMENT_SET_NO":999,"REV_AT_EPOCH":304,"BSTAR":-0.0029982389,"MEAN_MOTION_DOT":-0.01324892,"MEAN_MOTION_DDOT":0.00053757273},{"OBJECT_NAME":"STARLINK-36813","OBJECT_ID":"2026-035P","EPOCH":"2026-03-05T22:00:01.999584","MEAN_MOTION":15.97209388,"ECCENTRICITY":0.00011133,"INCLINATION":97.2712,"RA_OF_ASC_NODE":356.9927,"ARG_OF_PERICENTER":95.5983,"MEAN_ANOMALY":157.5917,"EPHEMERIS_TYPE":0,"CLASSIFICATION_TYPE":"U","NORAD_CAT_ID":67892,"ELEMENT_SET_NO":999,"REV_AT_EPOCH":315,"BSTAR":-0.0030116003,"MEAN_MOTION_DOT":-0.01299687,"MEAN_MOTION_DDOT":0.00051637747},{"OBJECT_NAME":"STARLINK-36803","OBJECT_ID":"2026-035Q","EPOCH":"2026-03-05T22:00:01.999584","MEAN_MOTION":15.96846462,"ECCENTRICITY":0.00012943,"INCLINATION":97.2728,"RA_OF_ASC_NODE":356.9827,"ARG_OF_PERICENTER":100.8683,"MEAN_ANOMALY":124.1262,"EPHEMERIS_TYPE":0,"CLASSIFICATION_TYPE":"U","NORAD_CAT_ID":67893,"ELEMENT_SET_NO":999,"REV_AT_EPOCH":315,"BSTAR":-0.0030155428,"MEAN_MOTION_DOT":-0.01276185,"MEAN_MOTION_DDOT":0.00049730092},{"OBJECT_NAME":"STARLINK-36846","OBJECT_ID":"2026-035R","EPOCH":"2026-03-05T22:00:01.999584","MEAN_MOTION":15.96957544,"ECCENTRICITY":0.00014381,"INCLINATION":97.2726,"RA_OF_ASC_NODE":356.9869,"ARG_OF_PERICENTER":113.9008,"MEAN_ANOMALY":121.2642,"EPHEMERIS_TYPE":0,"CLASSIFICATION_TYPE":"U","NORAD_CAT_ID":67894,"ELEMENT_SET_NO":999,"REV_AT_EPOCH":315,"BSTAR":-0.0030343331,"MEAN_MOTION_DOT":-0.01291785,"MEAN_MOTION_DDOT":0.00050920472},{"OBJECT_NAME":"STARLINK-36866","OBJECT_ID":"2026-035S","EPOCH":"2026-03-05T22:00:01.999584","MEAN_MOTION":15.97020799,"ECCENTRICITY":0.00012076,"INCLINATION":97.2725,"RA_OF_ASC_NODE":356.9886,"ARG_OF_PERICENTER":94.7616,"MEAN_ANOMALY":144.8796,"EPHEMERIS_TYPE":0,"CLASSIFICATION_TYPE":"U","NORAD_CAT_ID":67895,"ELEMENT_SET_NO":999,"REV_AT_EPOCH":315,"BSTAR":-0.0030392267,"MEAN_MOTION_DOT":-0.01298224,"MEAN_MOTION_DDOT":0.00051426338},{"OBJECT_NAME":"STARLINK-36877","OBJECT_ID":"2026-035T","EPOCH":"2026-03-05T22:00:01.999584","MEAN_MOTION":15.96894571,"ECCENTRICITY":0.00012479,"INCLINATION":97.2726,"RA_OF_ASC_NODE":356.9847,"ARG_OF_PERICENTER":92.2049,"MEAN_ANOMALY":138.0733,"EPHEMERIS_TYPE":0,"CLASSIFICATION_TYPE":"U","NORAD_CAT_ID":67896,"ELEMENT_SET_NO":999,"REV_AT_EPOCH":315,"BSTAR":-0.0030013197,"MEAN_MOTION_DOT":-0.01273511,"MEAN_MOTION_DDOT":0.00049563181}]
